STARLINK-31281          
1 59077U 24041D   26068.09133247 -.00001342  00000+0 -39292-4 0  9990
2 59077  42.9991 313.7740 0000855 184.1324 175.9521 15.27562264114231
TANSTAAFL-2             
1 62378U 24247B   26067.20753490  .00013897  00000+0  50872-3 0  9998
2 62378  44.9880 125.0934 0003072 298.8909  61.1666 15.28016845 67506
